{"type": "FeatureCollection", "features": [ {"type": "Feature", "properties": {"norad_id": 37292, "name": "COSMOS 2251 DEB", "group": "cosmos-2251-debris", "lat": 29.515090735328254, "lon": 42.17983022210211, "alt_km": 727.9199768878716, "timestamp": "2025-12-22T11:33:20.837598+00:00", "meta": {"OBJECT_NAME": "COSMOS 2251 DEB", "OBJECT_ID": "1993-036BJG", "EPOCH": "2025-12-02T14:04:30.366912", "MEAN_MOTION": 14.03226454, "ECCENTRICITY": 0.02102512, "INCLINATION": 74.129, "RA_OF_ASC_NODE": 67.3453, "ARG_OF_PERICENTER": 73.1105, "MEAN_ANOMALY": 289.2966, "EPHEMERIS_TYPE": 0, "CLASSIFICATION_TYPE": "U", "NORAD_CAT_ID": 37292, "ELEMENT_SET_NO": 999, "REV_AT_EPOCH": 59706, "BSTAR": 0.0022453288, "MEAN_MOTION_DOT": 4.236e-05, "MEAN_MOTION_DDOT": 0}, "tle": {"line1": "1 37292U 93036BJG 25336.58646258  .00004236  00000+0  22453-2 0  9999", "line2": "2 37292  74.1290  67.3453 0210251  73.1105 289.2966 14.03226454597064"}}, "geometry": {"type": "Point", "coordinates": [42.17983022210211, 29.515090735328254]}}, {"type": "Feature", "properties": {"norad_id": 37295, "name": "COSMOS 2251 DEB", "group": "cosmos-2251-debris", "lat": -43.19134807475488, "lon": -112.77621564520027, "alt_km": 699.8640622190096, "timestamp": "2025-12-22T11:33:20.837608+00:00", "meta": {"OBJECT_NAME": "COSMOS 2251 DEB", "OBJECT_ID": "1993-036BJK", "EPOCH": "2025-12-22T00:17:34.421280", "MEAN_MOTION": 14.65289136, "ECCENTRICITY": 0.0043932, "INCLINATION": 74.0064, "RA_OF_ASC_NODE": 263.7481, "ARG_OF_PERICENTER": 80.1076, "MEAN_ANOMALY": 280.5048, "EPHEMERIS_TYPE": 0, "CLASSIFICATION_TYPE": "U", "NORAD_CAT_ID": 37295, "ELEMENT_SET_NO": 999, "REV_AT_EPOCH": 82440, "BSTAR": 0.00052217, "MEAN_MOTION_DOT": 2.826e-05, "MEAN_MOTION_DDOT": 0}, "tle": {"line1": "1 37295U 93036BJK 25356.01220395  .00002826  00000+0  52217-3 0  9997", "line2": "2 37295  74.0064 263.7481 0043932  80.1076 280.5048 14.65289136824403"}}, "geometry": {"type": "Point", "coordinates": [-112.77621564520027, -43.19134807475488]}}, {"type": "Feature", "properties": {"norad_id": 37305, "name": "COSMOS 2251 DEB", "group": "cosmos-2251-debris", "lat": 22.359772772946613, "lon": 85.60964015568297, "alt_km": 760.9495479154166, "timestamp": "2025-12-22T11:33:20.837618+00:00", "meta": {"OBJECT_NAME": "COSMOS 2251 DEB", "OBJECT_ID": "1993-036BJV", "EPOCH": "2025-12-21T01:23:20.082048", "MEAN_MOTION": 14.36162637, "ECCENTRICITY": 0.00496491, "INCLINATION": 73.8709, "RA_OF_ASC_NODE": 275.0855, "ARG_OF_PERICENTER": 234.1491, "MEAN_ANOMALY": 125.5045, "EPHEMERIS_TYPE": 0, "CLASSIFICATION_TYPE": "U", "NORAD_CAT_ID": 37305, "ELEMENT_SET_NO": 999, "REV_AT_EPOCH": 66986, "BSTAR": 0.00038407162, "MEAN_MOTION_DOT": 1.108e-05, "MEAN_MOTION_DDOT": 0}, "tle": {"line1": "1 37305U 93036BJV 25355.05787132  .00001108  00000+0  38407-3 0  9996", "line2": "2 37305  73.8709 275.0855 0049649 234.1491 125.5045 14.36162637669868"}}, "geometry": {"type": "Point", "coordinates": [85.60964015568297, 22.359772772946613]}}, {"type": "Feature", "properties": {"norad_id": 37312, "name": "COSMOS 2251 DEB", "group": "cosmos-2251-debris", "lat": -8.87853342133494, "lon": 8.56126064650498, "alt_km": 743.942400588372, "timestamp": "2025-12-22T11:33:20.837628+00:00", "meta": {"OBJECT_NAME": "COSMOS 2251 DEB", "OBJECT_ID": "1993-036BKC", "EPOCH": "2025-12-20T18:50:10.277088", "MEAN_MOTION": 14.46148275, "ECCENTRICITY": 0.00184835, "INCLINATION": 74.0302, "RA_OF_ASC_NODE": 189.1635, "ARG_OF_PERICENTER": 291.522, "MEAN_ANOMALY": 68.3967, "EPHEMERIS_TYPE": 0, "CLASSIFICATION_TYPE": "U", "NORAD_CAT_ID": 37312, "ELEMENT_SET_NO": 999, "REV_AT_EPOCH": 86280, "BSTAR": 0.00027670077, "MEAN_MOTION_DOT": 9.64e-06, "MEAN_MOTION_DDOT": 0}, "tle": {"line1": "1 37312U 93036BKC 25354.78484117  .00000964  00000+0  27670-3 0  9999", "line2": "2 37312  74.0302 189.1635 0018483 291.5220  68.3967 14.46148275862807"}}, "geometry": {"type": "Point", "coordinates": [8.56126064650498, -8.87853342133494]}}, {"type": "Feature", "properties": {"norad_id": 37316, "name": "COSMOS 2251 DEB", "group": "cosmos-2251-debris", "lat": -65.66415553703936, "lon": -37.906250461923214, "alt_km": 604.7272654600174, "timestamp": "2025-12-22T11:33:20.837638+00:00", "meta": {"OBJECT_NAME": "COSMOS 2251 DEB", "OBJECT_ID": "1993-036BKG", "EPOCH": "2025-12-21T18:12:24.799968", "MEAN_MOTION": 14.94828581, "ECCENTRICITY": 0.0029483, "INCLINATION": 74.0191, "RA_OF_ASC_NODE": 2.8717, "ARG_OF_PERICENTER": 67.4813, "MEAN_ANOMALY": 292.9487, "EPHEMERIS_TYPE": 0, "CLASSIFICATION_TYPE": "U", "NORAD_CAT_ID": 37316, "ELEMENT_SET_NO": 999, "REV_AT_EPOCH": 86278, "BSTAR": 0.0017094, "MEAN_MOTION_DOT": 0.00018787, "MEAN_MOTION_DDOT": 0}, "tle": {"line1": "1 37316U 93036BKG 25355.75862037  .00018787  00000+0  17094-2 0  9992", "line2": "2 37316  74.0191   2.8717 0029483  67.4813 292.9487 14.94828581862786"}}, "geometry": {"type": "Point", "coordinates": [-37.906250461923214, -65.66415553703936]}}, {"type": "Feature", "properties": {"norad_id": 37320, "name": "COSMOS 2251 DEB", "group": "cosmos-2251-debris", "lat": -45.27352573138791, "lon": 35.8108094903537, "alt_km": 620.9567843785562, "timestamp": "2025-12-22T11:33:20.837648+00:00", "meta": {"OBJECT_NAME": "COSMOS 2251 DEB", "OBJECT_ID": "1993-036BKL", "EPOCH": "2025-12-19T20:49:51.953088", "MEAN_MOTION": 14.78856543, "ECCENTRICITY": 0.00469093, "INCLINATION": 74.0446, "RA_OF_ASC_NODE": 204.1562, "ARG_OF_PERICENTER": 289.7671, "MEAN_ANOMALY": 69.8449, "EPHEMERIS_TYPE": 0, "CLASSIFICATION_TYPE": "U", "NORAD_CAT_ID": 37320, "ELEMENT_SET_NO": 999, "REV_AT_EPOCH": 66252, "BSTAR": 0.00051289365, "MEAN_MOTION_DOT": 3.813e-05, "MEAN_MOTION_DDOT": 0}, "tle": {"line1": "1 37320U 93036BKL 25353.86796242  .00003813  00000+0  51289-3 0  9990", "line2": "2 37320  74.0446 204.1562 0046909 289.7671  69.8449 14.78856543662522"}}, "geometry": {"type": "Point", "coordinates": [35.8108094903537, -45.27352573138791]}}, {"type": "Feature", "properties": {"norad_id": 37326, "name": "COSMOS 2251 DEB", "group": "cosmos-2251-debris", "lat": -10.517522235879078, "lon": 139.0939727530335, "alt_km": 703.9249755989213, "timestamp": "2025-12-22T11:33:20.837658+00:00", "meta": {"OBJECT_NAME": "COSMOS 2251 DEB", "OBJECT_ID": "1993-036BKS", "EPOCH": "2025-12-18T14:41:59.918784", "MEAN_MOTION": 14.6160351, "ECCENTRICITY": 0.00547059, "INCLINATION": 74.0257, "RA_OF_ASC_NODE": 323.4491, "ARG_OF_PERICENTER": 90.7075, "MEAN_ANOMALY": 270.0361, "EPHEMERIS_TYPE": 0, "CLASSIFICATION_TYPE": "U", "NORAD_CAT_ID": 37326, "ELEMENT_SET_NO": 999, "REV_AT_EPOCH": 85569, "BSTAR": 0.00040097011, "MEAN_MOTION_DOT": 2.005e-05, "MEAN_MOTION_DDOT": 0}, "tle": {"line1": "1 37326U 93036BKS 25352.61249906  .00002005  00000+0  40097-3 0  9995", "line2": "2 37326  74.0257 323.4491 0054705  90.7075 270.0361 14.61603510855692"}}, "geometry": {"type": "Point", "coordinates": [139.0939727530335, -10.517522235879078]}}, {"type": "Feature", "properties": {"norad_id": 37330, "name": "COSMOS 2251 DEB", "group": "cosmos-2251-debris", "lat": 60.456202768865396, "lon": 66.11895651255841, "alt_km": 648.4959509506607, "timestamp": "2025-12-22T11:33:20.837668+00:00", "meta": {"OBJECT_NAME": "COSMOS 2251 DEB", "OBJECT_ID": "1993-036BKW", "EPOCH": "2025-12-20T12:58:19.659648", "MEAN_MOTION": 14.5955958, "ECCENTRICITY": 0.0056796, "INCLINATION": 74.0188, "RA_OF_ASC_NODE": 280.1955, "ARG_OF_PERICENTER": 126.4731, "MEAN_ANOMALY": 234.1688, "EPHEMERIS_TYPE": 0, "CLASSIFICATION_TYPE": "U", "NORAD_CAT_ID": 37330, "ELEMENT_SET_NO": 999, "REV_AT_EPOCH": 86482, "BSTAR": 0.000194, "MEAN_MOTION_DOT": 9.12e-06, "MEAN_MOTION_DDOT": 0}, "tle": {"line1": "1 37330U 93036BKW 25354.54050532  .00000912  00000+0  19400-3 0  9998", "line2": "2 37330  74.0188 280.1955 0056796 126.4731 234.1688 14.59559580864824"}}, "geometry": {"type": "Point", "coordinates": [66.11895651255841, 60.456202768865396]}}, {"type": "Feature", "properties": {"norad_id": 37331, "name": "COSMOS 2251 DEB", "group": "cosmos-2251-debris", "lat": 71.74977860394783, "lon": 170.07481265914225, "alt_km": 736.2420718961339, "timestamp": "2025-12-22T11:33:20.837678+00:00", "meta": {"OBJECT_NAME": "COSMOS 2251 DEB", "OBJECT_ID": "1993-036BKX", "EPOCH": "2025-12-20T20:37:09.916320", "MEAN_MOTION": 14.35041344, "ECCENTRICITY": 0.0055285, "INCLINATION": 74.0747, "RA_OF_ASC_NODE": 53.0207, "ARG_OF_PERICENTER": 64.7623, "MEAN_ANOMALY": 295.9246, "EPHEMERIS_TYPE": 0, "CLASSIFICATION_TYPE": "U", "NORAD_CAT_ID": 37331, "ELEMENT_SET_NO": 999, "REV_AT_EPOCH": 84876, "BSTAR": 0.00030498, "MEAN_MOTION_DOT": 8.59e-06, "MEAN_MOTION_DDOT": 0}, "tle": {"line1": "1 37331U 93036BKX 25354.85914255  .00000859  00000+0  30498-3 0  9994", "line2": "2 37331  74.0747  53.0207 0055285  64.7623 295.9246 14.35041344848767"}}, "geometry": {"type": "Point", "coordinates": [170.07481265914225, 71.74977860394783]}}, {"type": "Feature", "properties": {"norad_id": 37336, "name": "COSMOS 2251 DEB", "group": "cosmos-2251-debris", "lat": -0.7881584915031649, "lon": -46.79371675179001, "alt_km": 767.0682242798703, "timestamp": "2025-12-22T11:33:20.837688+00:00", "meta": {"OBJECT_NAME": "COSMOS 2251 DEB", "OBJECT_ID": "1993-036BLC", "EPOCH": "2025-12-17T07:33:13.175712", "MEAN_MOTION": 14.32760586, "ECCENTRICITY": 0.00290162, "INCLINATION": 74.0414, "RA_OF_ASC_NODE": 322.8603, "ARG_OF_PERICENTER": 39.1846, "MEAN_ANOMALY": 321.1399, "EPHEMERIS_TYPE": 0, "CLASSIFICATION_TYPE": "U", "NORAD_CAT_ID": 37336, "ELEMENT_SET_NO": 999, "REV_AT_EPOCH": 65185, "BSTAR": 6.9199726e-05, "MEAN_MOTION_DOT": 1.63e-06, "MEAN_MOTION_DDOT": 0}, "tle": {"line1": "1 37336U 93036BLC 25351.31473583  .00000163  00000+0  69200-4 0  9993", "line2": "2 37336  74.0414 322.8603 0029016  39.1846 321.1399 14.32760586651852"}}, "geometry": {"type": "Point", "coordinates": [-46.79371675179001, -0.7881584915031649]}}]}